{
  "name": "SATGUS",
  "line1": "1 62713U 25009DJ  25205.81076911  .00005638  00000+0  51104-3 0  9997",
  "line2": "2 62713  97.7335 285.6251 0003254 134.9896 225.1589 14.95736668 28533",
  "fetched_at": "2025-07-25T05:00:39.284394+00:00"
}